APRIZESAT 2             
1 28366U 04025A   26195.90808451  .00000093  00000+0  41729-4 0  9992
2 28366  98.1041   0.3224 0105920 165.7286 194.6935 14.38047573155621
SAUDICOMSAT 1           
1 28369U 04025D   26195.58324080  .00000143  00000+0  44155-4 0  9992
2 28369  98.5777 206.4547 0031017 300.8440  58.9706 14.55493311168110
SAUDICOMSAT 2           
1 28370U 04025E   26195.58967387  .00000093  00000+0  36161-4 0  9999
2 28370  98.6643 208.6106 0055615 175.5115 184.6588 14.49994203164071
APRIZESAT 1             
1 28372U 04025G   26195.93200311  .00000118  00000+0  41017-4 0  9991
2 28372  98.6309 207.4130 0045778  71.4531 289.1629 14.51791961165933
NANOSAT-1               
1 28493U 04049B   26195.95264494  .00000472  00000+0  69328-4 0  9993
2 28493  98.2309 333.2984 0003779 184.6374 175.4803 14.80210552159551
SAUDICOMSAT 7           
1 31119U 07012C   26195.88968907  .00000235  00000+0  51304-4 0  9999
2 31119  98.3797 170.5911 0056964 109.2296 251.5082 14.66136454 26497
SAUDICOMSAT 6           
1 31121U 07012E   26195.86595206  .00000163  00000+0  41322-4 0  9997
2 31121  98.4117 163.9008 0070516 240.1526 119.2654 14.62584351 24234
SAUDICOMSAT 5           
1 31124U 07012H   26195.89246183  .00000306  00000+0  61499-4 0  9996
2 31124  98.3511 171.3354 0048270  39.7602 320.7124 14.68191921 27664
SAUDICOMSAT 3           
1 31125U 07012J   26195.73684612  .00000367  00000+0  68389-4 0  9995
2 31125  98.3164 171.7231 0038309 326.7103  33.1694 14.70749358 28871
SAUDICOMSAT 4           
1 31127U 07012L   26195.89354655  .00000194  00000+0  45311-4 0  9993
2 31127  98.4003 169.0321 0063535 170.6739 189.5659 14.64535236 25343
APRIZESAT 4             
1 35684U 09041D   26195.76890348  .00000319  00000+0  44861-4 0  9997
2 35684  98.1404 271.6382 0042209 230.9211 128.8245 14.83913443915452
APRIZESAT 3             
1 35686U 09041F   26195.91816132  .00000913  00000+0  83801-4 0  9992
2 35686  98.2099 350.4767 0060833 336.8509  22.9972 14.96310537920521
S-NET D                 
1 43186U 18014G   26195.70752162  .00002523  00000+0  13144-3 0  9996
2 43186  97.5336 100.3276 0006263 287.1743  72.8804 15.16915277462932
S-NET B                 
1 43187U 18014H   26195.71951560  .00002461  00000+0  12839-3 0  9992
2 43187  97.5340 100.3268 0006858 280.6944  79.3517 15.16885110462935
S-NET A                 
1 43188U 18014J   26195.70624733  .00002488  00000+0  12958-3 0  9992
2 43188  97.5351 100.5279 0006740 281.8128  78.2349 15.16923371462932
S-NET C                 
1 43189U 18014K   26195.72353909  .00002400  00000+0  12529-3 0  9997
2 43189  97.5370 100.6239 0008125 272.3124  87.7179 15.16876096461487
SALSAT                  
1 46495U 20068K   26195.54877328  .00004163  00000+0  14541-3 0  9992
2 46495  97.8856 200.2874 0009148 195.2534 164.8431 15.30166467319545
OOV-CUBE (TUBSAT-30)    
1 60240U 24128F   26195.93437452  .00001000  00000+0  88744-4 0  9994
2 60240  61.9937 128.8119 0041150 139.9760 220.4377 15.02873276110283
LPNTSAT-001 (IOD-1)     
1 68408U 26065A   26195.61955926  .00001398  00000+0  70560-4 0  9993
2 68408  97.3982  75.5460 0014623 268.7074  91.2485 15.18667253 16429
CHUANG XIN 26 (CX-26)   
1 69972U 26158A   26194.51442212 -.00000212  00000+0 -21871-4 0  9997
2 69972  49.9860 287.5119 0004887 294.2352  65.8050 14.25122238   462
